AISTECHSAT 2            
1 43768U 18099L   26140.08975791  .00003966  00000+0  21506-3 0  9994
2 43768  97.4309 188.7423 0005777  52.5965 307.5793 15.15127386408020
FOX-1CLIFF (AO-95)      
1 43770U 18099N   26140.41286313  .00008077  00000+0  31609-3 0  9992
2 43770  97.4395 200.7731 0010444  89.4115 270.8320 15.26039698408981
RANGE-A                 
1 43773U 18099R   26140.07501972  .00003176  00000+0  18267-3 0  9998
2 43773  97.3984 183.4794 0012096  86.6760 273.5855 15.13114006408248
SNUSAT-2                
1 43782U 18099AA  26140.38446571  .00005540  00000+0  24992-3 0  9994
2 43782  97.4072 194.2023 0011110  42.2948 317.9142 15.21361536408809
SNUGLITE                
1 43784U 18099AC  26140.42166006  .00008596  00000+0  33195-3 0  9992
2 43784  97.3882 194.9861 0003715  56.0703 304.0888 15.26500980409088
ITASAT                  
1 43786U 18099AE  26140.41759562  .00004945  00000+0  24132-3 0  9993
2 43786  97.4045 192.4886 0014390  91.1121 269.1762 15.18653930408690
EAGLET-I                
1 43790U 18099AJ  26140.40481635  .00002799  00000+0  16325-3 0  9990
2 43790  97.4249 190.8113 0012858  84.0425 276.2271 15.12699791408133
ESEO                    
1 43792U 18099AL  26140.37395631  .00001129  00000+0  85401-4 0  9996
2 43792  97.4000 178.9519 0013686  72.0814 288.1904 15.04154373407627
THEA                    
1 43796U 18099AQ  26140.16181026  .00012955  00000+0  39610-3 0  9997
2 43796  97.4449 209.6017 0007647  37.3966 322.7807 15.33967544408391
ASTROCAST 0.1           
1 43798U 18099AS  26140.15195458  .00025223  00000+0  49136-3 0  9998
2 43798  97.4381 217.8171 0003400 326.3048  33.7986 15.47532351410091
JY1SAT (JO-97)          
1 43803U 18099AX  26140.16159734  .00012231  00000+0  38982-3 0  9995
2 43803  97.4140 202.9171 0005648  28.1557 331.9990 15.32669513409332
SUOMI-100               
1 43804U 18099AY  26139.13098526  .00008395  00000+0  31256-3 0  9995
2 43804  97.4202 199.6455 0010424  32.8550 327.3335 15.27679899408986
CENTAURI-1              
1 43809U 18099BD  26140.09179188  .00004192  00000+0  22079-3 0  9995
2 43809  97.4236 192.4182 0015710  69.4479 290.8437 15.16041953408243
GLOBAL-2                
1 43812U 18099BG  26140.34910646  .00001437  00000+0  96034-4 0  9991
2 43812  97.3573 178.0214 0004238 240.3109 119.7698 15.08488800407715
SEAHAWK-1               
1 43820U 18099BQ  26140.40199836  .00006080  00000+0  26671-3 0  9995
2 43820  97.3972 193.3188 0009448  56.2080 304.0055 15.22294463408305
SAUDISAT 5A             
1 43831U 18102A   26140.52719260  .00003653  00000+0  13742-3 0  9992
2 43831  97.3078 202.6450 0008527 223.8457 136.2107 15.27729484411451
SAUDISAT 5B             
1 43833U 18102C   26140.48534391  .00003382  00000+0  12637-3 0  9990
2 43833  97.3183 205.6234 0009178 227.3733 132.6734 15.28002197411566
ISAT                    
1 43879U 18111D   26140.30827404  .00058175  00000+0  70761-3 0  9993
2 43879  97.5904  73.4954 0007324  67.1997 293.0032 15.60341529406818
UWE-4                   
1 43880U 18111E   26140.30392549  .00022718  00000+0  49462-3 0  9990
2 43880  97.5864  67.4508 0010336  72.5059 287.7318 15.44244642406478
D-STAR ONE (SPARROW)    
1 43881U 18111F   26140.35061720  .00084987  00000+0  79530-3 0  9995
2 43881  97.6124  78.7202 0007325  95.8850 264.3245 15.66950588407003
JILIN-1 09              
1 43943U 19005B   26140.53769947  .00003425  00000+0  16111-3 0  9997
2 43943  97.4723 235.7444 0002801 151.9840 208.1547 15.20238084404946
JILIN-1 10              
1 43946U 19005E   26140.51243422  .00003979  00000+0  16043-3 0  9991
2 43946  97.4766 239.3270 0008519  27.4944 332.6743 15.25384495405098
EGYPTSAT-A (MISRSAT-A)  
1 44047U 19008A   26140.48253977  .00000803  00000+0  13499-3 0  9994
2 44047  98.0046 205.6501 0001240  81.6786 278.4561 14.72271968389167
EMISAT                  
1 44078U 19018A   26140.49058328  .00000362  00000+0  11951-3 0  9994
2 44078  98.4656 199.4398 0017406 303.5886  56.3642 14.43673474376068
JILIN-1 GAOFEN 3A       
1 44312U 19032C   26140.50870353  .00007215  00000+0  23900-3 0  9994
2 44312  44.9727 149.1904 0003808 152.8045 207.3039 15.31954328383594
WT 1B                   
1 44316U 19032G   26140.52536154  .00007512  00000+0  29222-3 0  9991
2 44316  44.9725 211.8620 0007510  90.9076 269.2667 15.26601238382853
PROX-1                  
1 44339U 19036A   26140.47054988  .00009477  00000+0  93274-3 0  9994
2 44339  23.9960 299.2970 0006828  70.2056 289.9179 14.89882740369336
NPSAT1                  
1 44340U 19036B   26140.36931750  .00003458  00000+0  47457-3 0  9990
2 44340  23.9996  38.8912 0007617 255.3576 104.6075 14.74288777368386
