OBJECT_NAME,OBJECT_ID,EPOCH,MEAN_MOTION,ECCENTRICITY,INCLINATION,RA_OF_ASC_NODE,ARG_OF_PERICENTER,MEAN_ANOMALY,EPHEMERIS_TYPE,CLASSIFICATION_TYPE,NORAD_CAT_ID,ELEMENT_SET_NO,REV_AT_EPOCH,BSTAR,MEAN_MOTION_DOT,MEAN_MOTION_DDOT
AISTECHSAT 2,2018-099L,2026-05-20T02:09:15.083424,15.15127386,.00057775,97.4309,188.7423,52.5965,307.5793,0,U,43768,999,40802,.21505908E-3,.3966E-4,0
FOX-1CLIFF (AO-95),2018-099N,2026-05-20T09:54:31.374432,15.26039698,.0010444,97.4395,200.7731,89.4115,270.8320,0,U,43770,999,40898,.31609E-3,.8077E-4,0
RANGE-A,2018-099R,2026-05-20T01:48:01.703808,15.13114006,.00120967,97.3984,183.4794,86.6760,273.5855,0,U,43773,999,40824,.18267183E-3,.3176E-4,0
SNUSAT-2,2018-099AA,2026-05-20T09:13:37.837344,15.21361536,.001111,97.4072,194.2023,42.2948,317.9142,0,U,43782,999,40880,.24992E-3,.554E-4,0
SNUGLITE,2018-099AC,2026-05-20T10:07:11.429184,15.26500980,.0003715,97.3882,194.9861,56.0703,304.0888,0,U,43784,999,40908,.33195E-3,.8596E-4,0
ITASAT,2018-099AE,2026-05-20T10:01:20.261568,15.18653930,.001439,97.4045,192.4886,91.1121,269.1762,0,U,43786,999,40869,.24132E-3,.4945E-4,0
EAGLET-I,2018-099AJ,2026-05-20T09:42:56.132640,15.12699791,.0012858,97.4249,190.8113,84.0425,276.2271,0,U,43790,999,40813,.16325E-3,.2799E-4,0
ESEO,2018-099AL,2026-05-20T08:58:29.825184,15.04154373,.0013686,97.4000,178.9519,72.0814,288.1904,0,U,43792,999,40762,.85401E-4,.1129E-4,0
THEA,2018-099AQ,2026-05-20T03:53:00.406464,15.33967544,.00076473,97.4449,209.6017,37.3966,322.7807,0,U,43796,999,40839,.39610086E-3,.12955E-3,0
ASTROCAST 0.1,2018-099AS,2026-05-20T03:38:48.875712,15.47532351,.00034006,97.4381,217.8171,326.3048,33.7986,0,U,43798,999,41009,.4913587E-3,.25223E-3,0
JY1SAT (JO-97),2018-099AX,2026-05-20T03:52:42.010176,15.32669513,.00056483,97.4140,202.9171,28.1557,331.9990,0,U,43803,999,40933,.38982163E-3,.12231E-3,0
SUOMI-100,2018-099AY,2026-05-19T03:08:37.126464,15.27679899,.00104246,97.4202,199.6455,32.8550,327.3335,0,U,43804,999,40898,.31255653E-3,.8395E-4,0
CENTAURI-1,2018-099BD,2026-05-20T02:12:10.818432,15.16041953,.00157108,97.4236,192.4182,69.4479,290.8437,0,U,43809,999,40824,.22078873E-3,.4192E-4,0
GLOBAL-2,2018-099BG,2026-05-20T08:22:42.798144,15.08488800,.0004238,97.3573,178.0214,240.3109,119.7698,0,U,43812,999,40771,.96034E-4,.1437E-4,0
SEAHAWK-1,2018-099BQ,2026-05-20T09:38:52.658304,15.22294463,.0009448,97.3972,193.3188,56.2080,304.0055,0,U,43820,999,40830,.26671E-3,.608E-4,0
SAUDISAT 5A,2018-102A,2026-05-20T12:39:09.440640,15.27729484,.0008527,97.3078,202.6450,223.8457,136.2107,0,U,43831,999,41145,.13742E-3,.3653E-4,0
SAUDISAT 5B,2018-102C,2026-05-20T11:38:53.713824,15.28002197,.0009178,97.3183,205.6234,227.3733,132.6734,0,U,43833,999,41156,.12637E-3,.3382E-4,0
ISAT,2018-111D,2026-05-20T07:23:54.877056,15.60341529,.0007324,97.5904,73.4954,67.1997,293.0032,0,U,43879,999,40681,.70761E-3,.58175E-3,0
UWE-4,2018-111E,2026-05-20T07:17:39.162336,15.44244642,.0010336,97.5864,67.4508,72.5059,287.7318,0,U,43880,999,40647,.49462E-3,.22718E-3,0
D-STAR ONE (SPARROW),2018-111F,2026-05-20T08:24:53.326080,15.66950588,.0007325,97.6124,78.7202,95.8850,264.3245,0,U,43881,999,40700,.7953E-3,.84987E-3,0
JILIN-1 09,2019-005B,2026-05-20T12:54:17.234208,15.20238084,.0002801,97.4723,235.7444,151.9840,208.1547,0,U,43943,999,40494,.16111E-3,.3425E-4,0
JILIN-1 10,2019-005E,2026-05-20T12:17:54.316608,15.25384495,.0008519,97.4766,239.3270,27.4944,332.6743,0,U,43946,999,40509,.16043E-3,.3979E-4,0
EGYPTSAT-A (MISRSAT-A),2019-008A,2026-05-20T11:34:51.436128,14.72271968,.000124,98.0046,205.6501,81.6786,278.4561,0,U,44047,999,38916,.13499E-3,.803E-5,0
EMISAT,2019-018A,2026-05-20T11:46:26.395392,14.43673474,.0017406,98.4656,199.4398,303.5886,56.3642,0,U,44078,999,37606,.11951E-3,.362E-5,0
JILIN-1 GAOFEN 3A,2019-032C,2026-05-20T12:12:31.984992,15.31954328,.0003808,44.9727,149.1904,152.8045,207.3039,0,U,44312,999,38359,.239E-3,.7215E-4,0
WT 1B,2019-032G,2026-05-20T12:36:31.237056,15.26601238,.000751,44.9725,211.8620,90.9076,269.2667,0,U,44316,999,38285,.29222E-3,.7512E-4,0
PROX-1,2019-036A,2026-05-20T11:17:35.509632,14.89882740,.0006828,23.9960,299.2970,70.2056,289.9179,0,U,44339,999,36933,.93274E-3,.9477E-4,0
NPSAT1,2019-036B,2026-05-20T08:51:49.032000,14.74288777,.0007617,23.9996,38.8912,255.3576,104.6075,0,U,44340,999,36838,.47457E-3,.3458E-4,0
